{"type": "FeatureCollection", "features": [ {"type": "Feature", "properties": {"norad_id": 66767, "name": "TRANSPORTER-15DF", "group": "last-30-days", "lat": -71.18727042116119, "lon": -132.71628746042782, "alt_km": 519.5783566636965, "timestamp": "2025-12-24T05:51:18.325760+00:00", "meta": {"OBJECT_NAME": "TRANSPORTER-15DF", "OBJECT_ID": "2025-276DF", "EPOCH": "2025-12-23T22:25:08.628960", "MEAN_MOTION": 15.18333114, "ECCENTRICITY": 0.00021101, "INCLINATION": 97.4368, "RA_OF_ASC_NODE": 69.5247, "ARG_OF_PERICENTER": 88.8033, "MEAN_ANOMALY": 271.3443, "EPHEMERIS_TYPE": 0, "CLASSIFICATION_TYPE": "U", "NORAD_CAT_ID": 66767, "ELEMENT_SET_NO": 999, "REV_AT_EPOCH": 382, "BSTAR": 0.00042391109, "MEAN_MOTION_DOT": 8.639e-05, "MEAN_MOTION_DDOT": 0}, "tle": {"line1": "1 66767U 25276DF  25357.93412765  .00008639  00000+0  42391-3 0  9990", "line2": "2 66767  97.4368  69.5247 0002110  88.8033 271.3443 15.18333114  3825"}}, "geometry": {"type": "Point", "coordinates": [-132.71628746042782, -71.18727042116119]}}, {"type": "Feature", "properties": {"norad_id": 66768, "name": "TRANSPORTER-15DG", "group": "last-30-days", "lat": -81.12420542016586, "lon": -166.92024950316102, "alt_km": 519.1531079748929, "timestamp": "2025-12-24T05:51:18.325770+00:00", "meta": {"OBJECT_NAME": "TRANSPORTER-15DG", "OBJECT_ID": "2025-276DG", "EPOCH": "2025-12-23T22:21:54.276480", "MEAN_MOTION": 15.185339, "ECCENTRICITY": 0.00022518, "INCLINATION": 97.4355, "RA_OF_ASC_NODE": 69.5238, "ARG_OF_PERICENTER": 77.2074, "MEAN_ANOMALY": 282.9411, "EPHEMERIS_TYPE": 0, "CLASSIFICATION_TYPE": "U", "NORAD_CAT_ID": 66768, "ELEMENT_SET_NO": 999, "REV_AT_EPOCH": 382, "BSTAR": 0.00042994262, "MEAN_MOTION_DOT": 8.814e-05, "MEAN_MOTION_DDOT": 0}, "tle": {"line1": "1 66768U 25276DG  25357.93187820  .00008814  00000+0  42994-3 0  9996", "line2": "2 66768  97.4355  69.5238 0002251  77.2074 282.9411 15.18533900  3823"}}, "geometry": {"type": "Point", "coordinates": [-166.92024950316102, -81.12420542016586]}}, {"type": "Feature", "properties": {"norad_id": 66769, "name": "TRANSPORTER-15DH", "group": "last-30-days", "lat": -77.3400998082634, "lon": -145.73637498857897, "alt_km": 519.6727933895218, "timestamp": "2025-12-24T05:51:18.325779+00:00", "meta": {"OBJECT_NAME": "TRANSPORTER-15DH", "OBJECT_ID": "2025-276DH", "EPOCH": "2025-12-23T22:23:18.310848", "MEAN_MOTION": 15.18413599, "ECCENTRICITY": 0.00027096, "INCLINATION": 97.4416, "RA_OF_ASC_NODE": 69.5411, "ARG_OF_PERICENTER": 105.3464, "MEAN_ANOMALY": 254.807, "EPHEMERIS_TYPE": 0, "CLASSIFICATION_TYPE": "U", "NORAD_CAT_ID": 66769, "ELEMENT_SET_NO": 999, "REV_AT_EPOCH": 382, "BSTAR": 0.00029719846, "MEAN_MOTION_DOT": 6.049e-05, "MEAN_MOTION_DDOT": 0}, "tle": {"line1": "1 66769U 25276DH  25357.93285082  .00006049  00000+0  29720-3 0  9996", "line2": "2 66769  97.4416  69.5411 0002709 105.3464 254.8070 15.18413599  3829"}}, "geometry": {"type": "Point", "coordinates": [-145.73637498857897, -77.3400998082634]}}, {"type": "Feature", "properties": {"norad_id": 66770, "name": "TRANSPORTER-15DJ", "group": "last-30-days", "lat": -78.71241883533591, "lon": -151.07241632915753, "alt_km": 519.832872456318, "timestamp": "2025-12-24T05:51:18.325791+00:00", "meta": {"OBJECT_NAME": "TRANSPORTER-15DJ", "OBJECT_ID": "2025-276DJ", "EPOCH": "2025-12-23T22:22:50.303424", "MEAN_MOTION": 15.1839801, "ECCENTRICITY": 0.00033118, "INCLINATION": 97.4448, "RA_OF_ASC_NODE": 69.5518, "ARG_OF_PERICENTER": 120.0822, "MEAN_ANOMALY": 240.0741, "EPHEMERIS_TYPE": 0, "CLASSIFICATION_TYPE": "U", "NORAD_CAT_ID": 66770, "ELEMENT_SET_NO": 999, "REV_AT_EPOCH": 382, "BSTAR": 0.00041033557, "MEAN_MOTION_DOT": 8.376e-05, "MEAN_MOTION_DDOT": 0}, "tle": {"line1": "1 66770U 25276DJ  25357.93252666  .00008376  00000+0  41034-3 0  9997", "line2": "2 66770  97.4448  69.5518 0003311 120.0822 240.0741 15.18398010  3828"}}, "geometry": {"type": "Point", "coordinates": [-151.07241632915753, -78.71241883533591]}}, {"type": "Feature", "properties": {"norad_id": 66771, "name": "TRANSPORTER-15DK", "group": "last-30-days", "lat": -80.56570346658002, "lon": -162.03983623473846, "alt_km": 519.6656645814282, "timestamp": "2025-12-24T05:51:18.325801+00:00", "meta": {"OBJECT_NAME": "TRANSPORTER-15DK", "OBJECT_ID": "2025-276DK", "EPOCH": "2025-12-23T22:22:08.795136", "MEAN_MOTION": 15.18477092, "ECCENTRICITY": 0.00030531, "INCLINATION": 97.4443, "RA_OF_ASC_NODE": 69.55, "ARG_OF_PERICENTER": 112.4477, "MEAN_ANOMALY": 247.7081, "EPHEMERIS_TYPE": 0, "CLASSIFICATION_TYPE": "U", "NORAD_CAT_ID": 66771, "ELEMENT_SET_NO": 999, "REV_AT_EPOCH": 382, "BSTAR": 0.00033707115, "MEAN_MOTION_DOT": 6.883e-05, "MEAN_MOTION_DDOT": 0}, "tle": {"line1": "1 66771U 25276DK  25357.93204624  .00006883  00000+0  33707-3 0  9998", "line2": "2 66771  97.4443  69.5500 0003053 112.4477 247.7081 15.18477092  3828"}}, "geometry": {"type": "Point", "coordinates": [-162.03983623473846, -80.56570346658002]}}, {"type": "Feature", "properties": {"norad_id": 66772, "name": "TRANSPORTER-15DL", "group": "last-30-days", "lat": -79.14606899893518, "lon": 112.8493487306622, "alt_km": 519.152418348388, "timestamp": "2025-12-24T05:51:18.325811+00:00", "meta": {"OBJECT_NAME": "TRANSPORTER-15DL", "OBJECT_ID": "2025-276DL", "EPOCH": "2025-12-23T20:43:42.367584", "MEAN_MOTION": 15.18700107, "ECCENTRICITY": 0.00029777, "INCLINATION": 97.4434, "RA_OF_ASC_NODE": 69.4851, "ARG_OF_PERICENTER": 100.9072, "MEAN_ANOMALY": 259.2497, "EPHEMERIS_TYPE": 0, "CLASSIFICATION_TYPE": "U", "NORAD_CAT_ID": 66772, "ELEMENT_SET_NO": 999, "REV_AT_EPOCH": 381, "BSTAR": 0.0005465472, "MEAN_MOTION_DOT": 0.0001128, "MEAN_MOTION_DDOT": 0}, "tle": {"line1": "1 66772U 25276DL  25357.86368481  .00011280  00000+0  54655-3 0  9995", "line2": "2 66772  97.4434  69.4851 0002977 100.9072 259.2497 15.18700107  3818"}}, "geometry": {"type": "Point", "coordinates": [112.8493487306622, -79.14606899893518]}}, {"type": "Feature", "properties": {"norad_id": 66773, "name": "TRANSPORTER-15DM", "group": "last-30-days", "lat": -82.52095939136554, "lon": 154.61482809850727, "alt_km": 519.808149471769, "timestamp": "2025-12-24T05:51:18.325821+00:00", "meta": {"OBJECT_NAME": "TRANSPORTER-15DM", "OBJECT_ID": "2025-276DM", "EPOCH": "2025-12-23T22:20:26.872512", "MEAN_MOTION": 15.18534776, "ECCENTRICITY": 0.00031958, "INCLINATION": 97.443, "RA_OF_ASC_NODE": 69.5474, "ARG_OF_PERICENTER": 99.5382, "MEAN_ANOMALY": 260.6214, "EPHEMERIS_TYPE": 0, "CLASSIFICATION_TYPE": "U", "NORAD_CAT_ID": 66773, "ELEMENT_SET_NO": 999, "REV_AT_EPOCH": 382, "BSTAR": 0.00031272295, "MEAN_MOTION_DOT": 6.391e-05, "MEAN_MOTION_DDOT": 0}, "tle": {"line1": "1 66773U 25276DM  25357.93086658  .00006391  00000+0  31272-3 0  9994", "line2": "2 66773  97.4430  69.5474 0003195  99.5382 260.6214 15.18534776  3828"}}, "geometry": {"type": "Point", "coordinates": [154.61482809850727, -82.52095939136554]}}, {"type": "Feature", "properties": {"norad_id": 66774, "name": "TRANSPORTER-15DN", "group": "last-30-days", "lat": -81.70556704524923, "lon": 133.56177795543474, "alt_km": 519.5108017630346, "timestamp": "2025-12-24T05:51:18.325831+00:00", "meta": {"OBJECT_NAME": "TRANSPORTER-15DN", "OBJECT_ID": "2025-276DN", "EPOCH": "2025-12-23T20:44:47.584032", "MEAN_MOTION": 15.18597122, "ECCENTRICITY": 0.00030317, "INCLINATION": 97.4415, "RA_OF_ASC_NODE": 69.4788, "ARG_OF_PERICENTER": 97.6511, "MEAN_ANOMALY": 262.5067, "EPHEMERIS_TYPE": 0, "CLASSIFICATION_TYPE": "U", "NORAD_CAT_ID": 66774, "ELEMENT_SET_NO": 999, "REV_AT_EPOCH": 381, "BSTAR": 0.00050310195, "MEAN_MOTION_DOT": 0.00010346, "MEAN_MOTION_DDOT": 0}, "tle": {"line1": "1 66774U 25276DN  25357.86443963  .00010346  00000+0  50310-3 0  9992", "line2": "2 66774  97.4415  69.4788 0003031  97.6511 262.5067 15.18597122  3811"}}, "geometry": {"type": "Point", "coordinates": [133.56177795543474, -81.70556704524923]}}, {"type": "Feature", "properties": {"norad_id": 66775, "name": "PHI 1", "group": "last-30-days", "lat": -78.98252724064375, "lon": 111.94826514682542, "alt_km": 518.9058980732807, "timestamp": "2025-12-24T05:51:18.325841+00:00", "meta": {"OBJECT_NAME": "PHI 1", "OBJECT_ID": "2025-276DP", "EPOCH": "2025-12-23T22:18:30.259296", "MEAN_MOTION": 15.18659243, "ECCENTRICITY": 0.00028577, "INCLINATION": 97.434, "RA_OF_ASC_NODE": 69.5225, "ARG_OF_PERICENTER": 67.2683, "MEAN_ANOMALY": 292.8853, "EPHEMERIS_TYPE": 0, "CLASSIFICATION_TYPE": "U", "NORAD_CAT_ID": 66775, "ELEMENT_SET_NO": 999, "REV_AT_EPOCH": 382, "BSTAR": 0.00036719105, "MEAN_MOTION_DOT": 7.544e-05, "MEAN_MOTION_DDOT": 0}, "tle": {"line1": "1 66775U 25276DP  25357.92951689  .00007544  00000+0  36719-3 0  9992", "line2": "2 66775  97.4340  69.5225 0002857  67.2683 292.8853 15.18659243  3827"}}, "geometry": {"type": "Point", "coordinates": [111.94826514682542, -78.98252724064375]}}, {"type": "Feature", "properties": {"norad_id": 66776, "name": "TRANSPORTER-15DQ", "group": "last-30-days", "lat": -77.28291154724803, "lon": 105.21709520651773, "alt_km": 519.0110832856953, "timestamp": "2025-12-24T05:51:18.325851+00:00", "meta": {"OBJECT_NAME": "TRANSPORTER-15DQ", "OBJECT_ID": "2025-276DQ", "EPOCH": "2025-12-23T22:17:56.537376", "MEAN_MOTION": 15.18706103, "ECCENTRICITY": 0.00029501, "INCLINATION": 97.4379, "RA_OF_ASC_NODE": 69.5345, "ARG_OF_PERICENTER": 82.8559, "MEAN_ANOMALY": 277.3011, "EPHEMERIS_TYPE": 0, "CLASSIFICATION_TYPE": "U", "NORAD_CAT_ID": 66776, "ELEMENT_SET_NO": 999, "REV_AT_EPOCH": 382, "BSTAR": 0.00042950898, "MEAN_MOTION_DOT": 8.849e-05, "MEAN_MOTION_DDOT": 0}, "tle": {"line1": "1 66776U 25276DQ  25357.92912659  .00008849  00000+0  42951-3 0  9991", "line2": "2 66776  97.4379  69.5345 0002950  82.8559 277.3011 15.18706103  3824"}}, "geometry": {"type": "Point", "coordinates": [105.21709520651773, -77.28291154724803]}}]}